[{"OBJECT_NAME":"STARLINK-4294","OBJECT_ID":"2022-083AW","EPOCH":"2026-03-09T11:52:30.271584","MEAN_MOTION":15.08845139,"ECCENTRICITY":0.0001353,"INCLINATION":53.2171,"RA_OF_ASC_NODE":149.9071,"ARG_OF_PERICENTER":95.9983,"MEAN_ANOMALY":264.1164,"EPHEMERIS_TYPE":0,"CLASSIFICATION_TYPE":"U","NORAD_CAT_ID":53176,"ELEMENT_SET_NO":999,"REV_AT_EPOCH":20153,"BSTAR":-0.00010508181,"MEAN_MOTION_DOT":-1.96e-5,"MEAN_MOTION_DDOT":0},{"OBJECT_NAME":"CZ-2F DEB","OBJECT_ID":"2022-093H","EPOCH":"2026-03-09T22:47:12.359904","MEAN_MOTION":15.21733628,"ECCENTRICITY":0.00740619,"INCLINATION":50.0217,"RA_OF_ASC_NODE":315.3952,"ARG_OF_PERICENTER":34.8084,"MEAN_ANOMALY":325.7683,"EPHEMERIS_TYPE":0,"CLASSIFICATION_TYPE":"U","NORAD_CAT_ID":53364,"ELEMENT_SET_NO":999,"REV_AT_EPOCH":19831,"BSTAR":0.00048014935,"MEAN_MOTION_DOT":0.00011557,"MEAN_MOTION_DDOT":0}]
